0 DMSP 5D-2 F11 DEB
1 28315U 91082AC  13281.51113858  .00001984  00000-0  14248-2 0  7391
2 28315 098.6948 133.7008 0143691 231.6009 190.3380 13.93274051479977
0 DMSP 5D-2 F11 DEB
1 28315U 91082AC  13282.81750547  .00001884  00000-0  13540-2 0  7402
2 28315 098.6946 134.9291 0143629 227.9663 262.8374 13.93284301480156
0 DMSP 5D-2 F11 DEB
1 28315U 91082AC  13283.82327336  .00001924  00000-0  13823-2 0  7410
2 28315 098.6946 135.8751 0143576 225.1595 267.6187 13.93289930480295
0 DMSP 5D-2 F11 DEB
1 28315U 91082AC  13286.11923916  .00002129  00000-0  15260-2 0  7438
2 28315 098.6948 138.0338 0143526 218.8163 263.8538 13.93297957480610
0 DMSP 5D-2 F11 DEB
1 28315U 91082AC  13287.54365801  .00002181  00000-0  15624-2 0  7442
2 28315 098.6943 139.3738 0143554 214.8641 208.5944 13.93303654480812
0 DMSP 5D-2 F11 DEB
1 28315U 91082AC  13288.84972450  .00002253  00000-0  16128-2 0  7451
2 28315 098.6938 140.6024 0143554 211.2339 279.7299 13.93312106480998
0 DMSP 5D-2 F11 DEB
1 28315U 91082AC  13289.85363128  .00002370  00000-0  16947-2 0  7469
2 28315 098.6934 141.5469 0143539 208.4337 275.2876 13.93315056481132
0 DMSP 5D-2 F11 DEB
1 28315U 91082AC  13290.86141532  .00002266  00000-0  16213-2 0  7476
2 28315 098.6931 142.4948 0143523 205.6152 290.3124 13.93320377481279
0 DMSP 5D-2 F11 DEB
1 28315U 91082AC  13291.86416186  .00002276  00000-0  16283-2 0  7486
2 28315 098.6929 143.4380 0143498 202.8083 280.0911 13.93323535481415
0 DMSP 5D-2 F11 DEB
1 28315U 91082AC  13292.86944727  .00002544  00000-0  18163-2 0  7492
2 28315 098.6929 144.3834 0143475 199.9913 282.6215 13.93326959481555
0 DMSP 5D-2 F11 DEB
1 28315U 91082AC  13293.87628997  .00002939  00000-0  20941-2 0  7509
2 28315 098.6931 145.3304 0143458 197.1731 292.9749 13.93330130481697
0 DMSP 5D-2 F11 DEB
1 28315U 91082AC  13295.16661817  .00003233  00000-0  23004-2 0  7513
2 28315 098.6934 146.5438 0143413 193.5623 285.3183 13.93336013481876
